[{"OBJECT_NAME":"STARLINK-33802","OBJECT_ID":"2025-127Y","EPOCH":"2025-10-22T06:27:44.752608","MEAN_MOTION":15.27594809,"ECCENTRICITY":0.00010914,"INCLINATION":43.0007,"RA_OF_ASC_NODE":241.8371,"ARG_OF_PERICENTER":249.7281,"MEAN_ANOMALY":110.3453,"EPHEMERIS_TYPE":0,"CLASSIFICATION_TYPE":"U","NORAD_CAT_ID":64392,"ELEMENT_SET_NO":999,"REV_AT_EPOCH":2134,"BSTAR":0.0013355012,"MEAN_MOTION_DOT":0.00036687,"MEAN_MOTION_DDOT":0},{"OBJECT_NAME":"STARLINK-34419","OBJECT_ID":"2025-129A","EPOCH":"2025-10-22T11:56:17.024064","MEAN_MOTION":14.98342402,"ECCENTRICITY":0.0003381,"INCLINATION":70.002,"RA_OF_ASC_NODE":63.034,"ARG_OF_PERICENTER":270.8616,"MEAN_ANOMALY":89.2155,"EPHEMERIS_TYPE":0,"CLASSIFICATION_TYPE":"U","NORAD_CAT_ID":64412,"ELEMENT_SET_NO":999,"REV_AT_EPOCH":2060,"BSTAR":0.00061011,"MEAN_MOTION_DOT":7.197e-5,"MEAN_MOTION_DDOT":0},{"OBJECT_NAME":"STARLINK-34275","OBJECT_ID":"2025-129B","EPOCH":"2025-10-22T11:26:27.853728","MEAN_MOTION":14.98341667,"ECCENTRICITY":0.000312,"INCLINATION":70.0019,"RA_OF_ASC_NODE":62.9694,"ARG_OF_PERICENTER":271.8701,"MEAN_ANOMALY":88.2101,"EPHEMERIS_TYPE":0,"CLASSIFICATION_TYPE":"U","NORAD_CAT_ID":64413,"ELEMENT_SET_NO":999,"REV_AT_EPOCH":2058,"BSTAR":0.00045378,"MEAN_MOTION_DOT":5.327e-5,"MEAN_MOTION_DDOT":0},{"OBJECT_NAME":"STARLINK-34225","OBJECT_ID":"2025-129C","EPOCH":"2025-10-22T12:08:18.418272","MEAN_MOTION":14.98341464,"ECCENTRICITY":0.0003304,"INCLINATION":70.0018,"RA_OF_ASC_NODE":63.0675,"ARG_OF_PERICENTER":270.3092,"MEAN_ANOMALY":89.7688,"EPHEMERIS_TYPE":0,"CLASSIFICATION_TYPE":"U","NORAD_CAT_ID":64414,"ELEMENT_SET_NO":999,"REV_AT_EPOCH":2058,"BSTAR":0.00055319,"MEAN_MOTION_DOT":6.516e-5,"MEAN_MOTION_DDOT":0},{"OBJECT_NAME":"STARLINK-34422","OBJECT_ID":"2025-129D","EPOCH":"2025-10-22T11:38:15.277056","MEAN_MOTION":14.98350534,"ECCENTRICITY":0.0002689,"INCLINATION":70.0029,"RA_OF_ASC_NODE":63.0023,"ARG_OF_PERICENTER":272.6551,"MEAN_ANOMALY":87.43,"EPHEMERIS_TYPE":0,"CLASSIFICATION_TYPE":"U","NORAD_CAT_ID":64415,"ELEMENT_SET_NO":999,"REV_AT_EPOCH":2052,"BSTAR":0.00033072,"MEAN_MOTION_DOT":3.857e-5,"MEAN_MOTION_DDOT":0},{"OBJECT_NAME":"STARLINK-34514","OBJECT_ID":"2025-129E","EPOCH":"2025-10-22T12:20:17.293920","MEAN_MOTION":14.98342183,"ECCENTRICITY":0.0003052,"INCLINATION":70.0021,"RA_OF_ASC_NODE":62.7002,"ARG_OF_PERICENTER":270.1426,"MEAN_ANOMALY":89.9383,"EPHEMERIS_TYPE":0,"CLASSIFICATION_TYPE":"U","NORAD_CAT_ID":64416,"ELEMENT_SET_NO":999,"REV_AT_EPOCH":2059,"BSTAR":0.00050329,"MEAN_MOTION_DOT":5.919e-5,"MEAN_MOTION_DDOT":0},{"OBJECT_NAME":"STARLINK-34487","OBJECT_ID":"2025-129F","EPOCH":"2025-10-22T12:26:17.943072","MEAN_MOTION":14.98340809,"ECCENTRICITY":0.0003387,"INCLINATION":70.0016,"RA_OF_ASC_NODE":62.7122,"ARG_OF_PERICENTER":272.2259,"MEAN_ANOMALY":87.8512,"EPHEMERIS_TYPE":0,"CLASSIFICATION_TYPE":"U","NORAD_CAT_ID":64417,"ELEMENT_SET_NO":999,"REV_AT_EPOCH":2053,"BSTAR":0.00064635,"MEAN_MOTION_DOT":7.63e-5,"MEAN_MOTION_DDOT":0},{"OBJECT_NAME":"STARLINK-34461","OBJECT_ID":"2025-129G","EPOCH":"2025-10-22T12:02:32.114112","MEAN_MOTION":14.9834125,"ECCENTRICITY":0.0003049,"INCLINATION":70.0022,"RA_OF_ASC_NODE":63.0569,"ARG_OF_PERICENTER":272.9229,"MEAN_ANOMALY":87.1581,"EPHEMERIS_TYPE":0,"CLASSIFICATION_TYPE":"U","NORAD_CAT_ID":64418,"ELEMENT_SET_NO":999,"REV_AT_EPOCH":2058,"BSTAR":0.00053756,"MEAN_MOTION_DOT":6.329e-5,"MEAN_MOTION_DDOT":0},{"OBJECT_NAME":"STARLINK-34512","OBJECT_ID":"2025-129H","EPOCH":"2025-10-22T11:44:15.749088","MEAN_MOTION":14.98330193,"ECCENTRICITY":0.0003252,"INCLINATION":70.0014,"RA_OF_ASC_NODE":63.0069,"ARG_OF_PERICENTER":268.9074,"MEAN_ANOMALY":91.1713,"EPHEMERIS_TYPE":0,"CLASSIFICATION_TYPE":"U","NORAD_CAT_ID":64419,"ELEMENT_SET_NO":999,"REV_AT_EPOCH":2052,"BSTAR":0.00067463,"MEAN_MOTION_DOT":7.966e-5,"MEAN_MOTION_DDOT":0},{"OBJECT_NAME":"STARLINK-34503","OBJECT_ID":"2025-129J","EPOCH":"2025-10-22T11:50:30.713856","MEAN_MOTION":14.98335859,"ECCENTRICITY":0.0003242,"INCLINATION":70.0022,"RA_OF_ASC_NODE":63.0262,"ARG_OF_PERICENTER":269.3606,"MEAN_ANOMALY":90.7182,"EPHEMERIS_TYPE":0,"CLASSIFICATION_TYPE":"U","NORAD_CAT_ID":64420,"ELEMENT_SET_NO":999,"REV_AT_EPOCH":2052,"BSTAR":0.00039871,"MEAN_MOTION_DOT":4.668e-5,"MEAN_MOTION_DDOT":0},{"OBJECT_NAME":"STARLINK-34498","OBJECT_ID":"2025-129K","EPOCH":"2025-10-22T11:32:14.532000","MEAN_MOTION":14.98341965,"ECCENTRICITY":0.0002814,"INCLINATION":70.0022,"RA_OF_ASC_NODE":62.9873,"ARG_OF_PERICENTER":271.0146,"MEAN_ANOMALY":89.0691,"EPHEMERIS_TYPE":0,"CLASSIFICATION_TYPE":"U","NORAD_CAT_ID":64421,"ELEMENT_SET_NO":999,"REV_AT_EPOCH":2058,"BSTAR":0.00055058,"MEAN_MOTION_DOT":6.485e-5,"MEAN_MOTION_DDOT":0},{"OBJECT_NAME":"STARLINK-34434","OBJECT_ID":"2025-129L","EPOCH":"2025-10-22T12:02:19.528224","MEAN_MOTION":14.98328329,"ECCENTRICITY":0.0003457,"INCLINATION":70.0019,"RA_OF_ASC_NODE":63.0585,"ARG_OF_PERICENTER":263.2434,"MEAN_ANOMALY":96.8332,"EPHEMERIS_TYPE":0,"CLASSIFICATION_TYPE":"U","NORAD_CAT_ID":64422,"ELEMENT_SET_NO":999,"REV_AT_EPOCH":2058,"BSTAR":0.0010946,"MEAN_MOTION_DOT":0.00012991,"MEAN_MOTION_DDOT":0},{"OBJECT_NAME":"STARLINK-34467","OBJECT_ID":"2025-129M","EPOCH":"2025-10-22T11:14:13.477920","MEAN_MOTION":14.98367158,"ECCENTRICITY":0.0002941,"INCLINATION":70.0022,"RA_OF_ASC_NODE":62.9421,"ARG_OF_PERICENTER":272.9656,"MEAN_ANOMALY":87.1166,"EPHEMERIS_TYPE":0,"CLASSIFICATION_TYPE":"U","NORAD_CAT_ID":64423,"ELEMENT_SET_NO":999,"REV_AT_EPOCH":2058,"BSTAR":0.0012325,"MEAN_MOTION_DOT":0.00014658,"MEAN_MOTION_DDOT":0},{"OBJECT_NAME":"STARLINK-34468","OBJECT_ID":"2025-129N","EPOCH":"2025-10-22T12:08:32.542080","MEAN_MOTION":14.98343613,"ECCENTRICITY":0.0003307,"INCLINATION":70.0019,"RA_OF_ASC_NODE":63.0721,"ARG_OF_PERICENTER":270.3654,"MEAN_ANOMALY":89.7126,"EPHEMERIS_TYPE":0,"CLASSIFICATION_TYPE":"U","NORAD_CAT_ID":64424,"ELEMENT_SET_NO":999,"REV_AT_EPOCH":2058,"BSTAR":0.00029377,"MEAN_MOTION_DOT":3.415e-5,"MEAN_MOTION_DDOT":0},{"OBJECT_NAME":"STARLINK-34452","OBJECT_ID":"2025-129P","EPOCH":"2025-10-22T12:32:32.817120","MEAN_MOTION":14.98342076,"ECCENTRICITY":0.0002629,"INCLINATION":70.0023,"RA_OF_ASC_NODE":62.7255,"ARG_OF_PERICENTER":269.4046,"MEAN_ANOMALY":90.6812,"EPHEMERIS_TYPE":0,"CLASSIFICATION_TYPE":"U","NORAD_CAT_ID":64425,"ELEMENT_SET_NO":999,"REV_AT_EPOCH":2059,"BSTAR":0.0005039,"MEAN_MOTION_DOT":5.926e-5,"MEAN_MOTION_DDOT":0},{"OBJECT_NAME":"STARLINK-34432","OBJECT_ID":"2025-129Q","EPOCH":"2025-10-22T11:20:13.873920","MEAN_MOTION":14.98312005,"ECCENTRICITY":0.0005315,"INCLINATION":70.0016,"RA_OF_ASC_NODE":62.9472,"ARG_OF_PERICENTER":297.7216,"MEAN_ANOMALY":62.3403,"EPHEMERIS_TYPE":0,"CLASSIFICATION_TYPE":"U","NORAD_CAT_ID":64426,"ELEMENT_SET_NO":999,"REV_AT_EPOCH":2052,"BSTAR":-0.00054938,"MEAN_MOTION_DOT":-6.64e-5,"MEAN_MOTION_DDOT":0},{"OBJECT_NAME":"STARLINK-34480","OBJECT_ID":"2025-129R","EPOCH":"2025-10-22T12:32:17.498400","MEAN_MOTION":14.98316043,"ECCENTRICITY":0.0003963,"INCLINATION":70.0017,"RA_OF_ASC_NODE":62.7219,"ARG_OF_PERICENTER":295.1178,"MEAN_ANOMALY":64.957,"EPHEMERIS_TYPE":0,"CLASSIFICATION_TYPE":"U","NORAD_CAT_ID":64427,"ELEMENT_SET_NO":999,"REV_AT_EPOCH":2059,"BSTAR":-1.0253e-5,"MEAN_MOTION_DOT":-2.15e-6,"MEAN_MOTION_DDOT":0},{"OBJECT_NAME":"STARLINK-34495","OBJECT_ID":"2025-129S","EPOCH":"2025-10-22T11:08:11.669280","MEAN_MOTION":14.98345798,"ECCENTRICITY":0.0002695,"INCLINATION":70.0031,"RA_OF_ASC_NODE":62.9272,"ARG_OF_PERICENTER":265.3068,"MEAN_ANOMALY":94.7783,"EPHEMERIS_TYPE":0,"CLASSIFICATION_TYPE":"U","NORAD_CAT_ID":64428,"ELEMENT_SET_NO":999,"REV_AT_EPOCH":2058,"BSTAR":0.00050724,"MEAN_MOTION_DOT":5.967e-5,"MEAN_MOTION_DDOT":0},{"OBJECT_NAME":"STARLINK-34501","OBJECT_ID":"2025-129T","EPOCH":"2025-10-22T11:50:15.476352","MEAN_MOTION":14.98324304,"ECCENTRICITY":0.0003009,"INCLINATION":70.0018,"RA_OF_ASC_NODE":63.0279,"ARG_OF_PERICENTER":264.9424,"MEAN_ANOMALY":95.1392,"EPHEMERIS_TYPE":0,"CLASSIFICATION_TYPE":"U","NORAD_CAT_ID":64429,"ELEMENT_SET_NO":999,"REV_AT_EPOCH":2058,"BSTAR":-0.00096153,"MEAN_MOTION_DOT":-0.00011545,"MEAN_MOTION_DDOT":0},{"OBJECT_NAME":"STARLINK-34441","OBJECT_ID":"2025-129U","EPOCH":"2025-10-22T11:26:13.642656","MEAN_MOTION":14.98338592,"ECCENTRICITY":0.0003004,"INCLINATION":70.0023,"RA_OF_ASC_NODE":62.9702,"ARG_OF_PERICENTER":271.6708,"MEAN_ANOMALY":88.4107,"EPHEMERIS_TYPE":0,"CLASSIFICATION_TYPE":"U","NORAD_CAT_ID":64430,"ELEMENT_SET_NO":999,"REV_AT_EPOCH":2058,"BSTAR":0.00037363,"MEAN_MOTION_DOT":4.369e-5,"MEAN_MOTION_DDOT":0},{"OBJECT_NAME":"STARLINK-34524","OBJECT_ID":"2025-129V","EPOCH":"2025-10-22T12:38:19.116960","MEAN_MOTION":14.98346158,"ECCENTRICITY":0.0003186,"INCLINATION":70.0023,"RA_OF_ASC_NODE":62.7423,"ARG_OF_PERICENTER":267.3913,"MEAN_ANOMALY":92.6882,"EPHEMERIS_TYPE":0,"CLASSIFICATION_TYPE":"U","NORAD_CAT_ID":64431,"ELEMENT_SET_NO":999,"REV_AT_EPOCH":2053,"BSTAR":0.00054554,"MEAN_MOTION_DOT":6.425e-5,"MEAN_MOTION_DDOT":0},{"OBJECT_NAME":"STARLINK-34506","OBJECT_ID":"2025-129W","EPOCH":"2025-10-22T12:14:15.729792","MEAN_MOTION":14.98331512,"ECCENTRICITY":0.0002635,"INCLINATION":70.0012,"RA_OF_ASC_NODE":62.6803,"ARG_OF_PERICENTER":268.5395,"MEAN_ANOMALY":91.5462,"EPHEMERIS_TYPE":0,"CLASSIFICATION_TYPE":"U","NORAD_CAT_ID":64432,"ELEMENT_SET_NO":999,"REV_AT_EPOCH":2053,"BSTAR":-0.00028825,"MEAN_MOTION_DOT":-3.531e-5,"MEAN_MOTION_DDOT":0},{"OBJECT_NAME":"STARLINK-34451","OBJECT_ID":"2025-129X","EPOCH":"2025-10-22T11:56:31.407072","MEAN_MOTION":14.98336609,"ECCENTRICITY":0.0002833,"INCLINATION":70.0015,"RA_OF_ASC_NODE":63.0388,"ARG_OF_PERICENTER":276.5275,"MEAN_ANOMALY":83.5562,"EPHEMERIS_TYPE":0,"CLASSIFICATION_TYPE":"U","NORAD_CAT_ID":64433,"ELEMENT_SET_NO":999,"REV_AT_EPOCH":2052,"BSTAR":0.00040555,"MEAN_MOTION_DOT":4.75e-5,"MEAN_MOTION_DDOT":0}]
